77P/Longmore,e,24.3184,14.7636,196.6905,3.622429,0.1429566,0.35169432,46.4639,02/22.0/2024,2000,g  7.0,8.0
# From MPEC 2021-O56
78P/Gehrels,e,6.2569,210.5312,192.6816,3.735666,0.1365061,0.46316672,243.4332,02/22.0/2024,2000,g  5.5,8.0
# From MPC 94675
79P/du Toit-Hartley,e,3.1488,281.7711,280.5286,2.943943,0.1951237,0.61921615,28.2241,02/22.0/2024,2000,g 16.0,4.0
# From MPEC 2023-RF3
80P/Peters-Hartley,e,29.9234,259.7854,339.2697,4.022777,0.1221561,0.59827499,53.7739,02/22.0/2024,2000,g  9.0,8.0
# From MPEC 2024-D33
81P/Wild,e,3.2368,136.0938,41.5936,3.452974,0.1536081,0.53725923,66.5770,02/22.0/2024,2000,g  7.0,6.0
# From MPC133426
82P/Gehrels,e,1.1291,239.2356,226.4102,4.132347,0.1173300,0.12241156,242.8953,02/22.0/2024,2000,g 15.0,4.0
# From NK 932
83D/Russell,e,17.8259,226.3066,334.4361,3.843962,0.1307782,0.44139117,131.4923,02/22.0/2024,2000,g  9.0,4.0
# From MPEC 2020-FB5
84P/Giclas,e,7.5511,108.1633,281.6437,3.550092,0.1473481,0.51604173,199.9712,02/22.0/2024,2000,g  9.5,8.0
# From unp
85D/Boethin,e,4.1742,65.2841,333.0688,5.043959,0.0870055,0.77630717,113.2568,02/22.0/2024,2000,g  6.5,8.0
# From MPEC 2022-YB4
86P/Wild,e,15.5092,72.1354,180.4067,3.620400,0.1430768,0.37103070,106.3327,02/22.0/2024,2000,g 11.0,6.0
# From MPEC 2020-SI8
87P/Bus,e,2.7558,187.1985,50.7489,4.267322,0.1118075,0.24302358,155.4828,02/22.0/2024,2000,g  7.2,10.0
# From MPEC 2024-C04
88P/Howell,e,4.3820,56.6660,235.9248,3.107114,0.1799568,0.56324608,223.9715,02/22.0/2024,2000,g 11.0,6.0
# From MPEC 2023-J29
89P/Russell,e,12.0721,41.3459,250.4009,3.751905,0.1356208,0.40780930,355.4423,02/22.0/2024,2000,g 11.5,6.0
# From MPEC 2022-K19
90P/Gehrels,e,9.6486,13.2160,29.1059,6.051970,0.0662001,0.51113046,161.1750,02/22.0/2024,2000,g  8.5,6.0
# From MPEC 2023-VM5
91P/Russell,e,15.8374,243.3036,359.1069,3.915551,0.1272081,0.32871780,153.7417,02/22.0/2024,2000,g  7.5,6.0
# From MPEC 2014-J58
92P/Sanguin,e,19.4955,181.3776,163.8016,5.342861,0.0798074,0.66056337,261.1335,02/22.0/2024,2000,g 12.0,6.0
# From NK 2707
93P/Lovas,e,12.2048,339.5856,74.9381,4.377411,0.1076163,0.61397839,273.8197,02/22.0/2024,2000,g  9.0,4.0
# From MPEC 2024-D33
94P/Russell,e,6.1879,70.8519,92.4067,3.510616,0.1498404,0.36566740,41.4982,02/22.0/2024,2000,g  9.0,6.0
# From MPC 75717
95P/Chiron,e,6.9226,209.1992,339.4157,13.71053,0.0194143,0.37675047,200.2063,02/22.0/2024,2000,g  6.5,2.0
# From MPEC 2023-N01
96P/Machholz,e,57.5397,93.9544,14.7427,3.030804,0.1867959,0.96162000,72.2708,02/22.0/2024,2000,g 13.0,4.8
# From MPC106348
96P-B/Machholz,e,57.5045,14.7223,93.9520,3.030149,0.1868565,0.96162546,72.2952,02/22.0/2024,2000,g 13.0,4.8
# From MPC103849
96P-C/Machholz,e,58.5311,94.3495,15.5380,3.011920,0.1885553,0.95889850,359.8715,07/14.0/2012,2000,g  9.0,4.0
# From MPEC 2024-D33
97P/Metcalf-Brewington,e,17.9491,184.0801,230.0963,4.766120,0.0947233,0.46029653,69.7196,02/22.0/2024,2000,g  5.5,6.0
# From MPEC 2021-W31
98P/Takamizawa,e,10.5704,114.6380,157.7351,3.790123,0.1335747,0.56262049,152.7977,02/22.0/2024,2000,g  9.0,8.0
# From MPEC 2024-A43
99P/Kowal,e,4.3394,28.0948,174.6843,6.097446,0.0654609,0.22853626,44.6922,02/22.0/2024,2000,g  4.5,6.0
# From MPEC 2023-OA6
100P/Hartley,e,25.5673,37.6856,181.9651,3.430583,0.1551144,0.41169578,86.8941,02/22.0/2024,2000,g  9.0,8.0
# From MPEC 2022-K19
101P/Chernykh,e,5.0494,116.2383,277.8017,5.813085,0.0703225,0.59627039,105.5212,02/22.0/2024,2000,g 10.0,4.8
# From MPC105241
101P-B/Chernykh,e,5.0499,278.5544,115.4882,5.828576,0.0700423,0.59648182,103.8554,02/22.0/2024,2000,g  9.0,4.0
# From MPEC 2022-C56
102P/Shoemaker,e,25.8721,339.4111,20.6601,3.818309,0.1320984,0.45666764,148.6802,02/22.0/2024,2000,g  6.5,8.0
# From MPEC 2024-D33
103P/Hartley,e,13.6107,219.7493,181.2993,3.474406,0.1521890,0.69373419,20.1639,02/22.0/2024,2000,g  8.5,8.0
# From MPEC 2023-G31
104P/Kowal,e,5.7031,207.2078,227.2563,3.208670,0.1714812,0.66585348,132.2291,02/22.0/2024,2000,g 16.0,4.0
# From MPEC 2024-D33
105P/SingerBrewster,e,9.1682,192.3973,46.3676,3.471274,0.1523950,0.40889871,308.8169,02/22.0/2024,2000,g 11.5,6.0
# From MPEC 2023-UR6
106P/Schuster,e,19.5405,48.8621,353.7656,3.766933,0.1348100,0.59391958,123.6141,02/22.0/2024,2000,g 14.0,4.8
# From MPEC 2015-M77
107P/Wilson-Harrington,e,2.7986,266.7532,95.4910,2.625188,0.2317199,0.63143658,126.6125,02/22.0/2024,2000,g  9.0,4.0
# From MPEC 2022-P82
108P/Ciffreo,e,11.4362,50.2976,354.4967,3.742407,0.1361374,0.55607787,121.7904,02/22.0/2024,2000,g  8.0,12.0
# From  105, 420
109P/Swift-Tuttle,e,113.4892,139.4251,153.2028,26.21169,0.0073445,0.96257062,83.6353,02/22.0/2024,2000,g  4.0,6.0
# From MPEC 2023-KD6
110P/Hartley,e,11.7071,287.4938,167.4972,3.603939,0.1440582,0.31897628,123.3582,02/22.0/2024,2000,g  1.0,12.0
# From MPC 75718
111P/Helin-Roman-Crockett,e,4.2259,89.8140,1.1950,4.152105,0.1164935,0.10710173,114.0746,02/22.0/2024,2000,g  5.0,8.0
# From MPEC 2021-S45
112P/Urata-Niijima,e,24.2101,31.8347,21.4960,3.523687,0.1490075,0.59082737,219.5454,02/22.0/2024,2000,g 14.0,6.0
# From MPEC 2023-VM5
113P/Spitaler,e,5.2879,306.6596,115.6255,3.694117,0.1388155,0.41994597,87.4964,02/22.0/2024,2000,g 13.5,4.0
# From MPEC 2023-A50
114P/Wiseman-Skiff,e,18.2999,271.0235,172.7632,3.541754,0.1478688,0.55589155,221.6016,02/22.0/2024,2000,g 11.5,6.0
# From MPEC 2023-J29
115P/Maury,e,11.6770,176.0140,120.9722,4.272154,0.1116179,0.51757623,145.5206,02/22.0/2024,2000,g 10.5,6.0
# From MPEC 2023-VM5
116P/Wild,e,3.6035,20.9718,173.2110,3.487753,0.1513162,0.37031797,88.5702,02/22.0/2024,2000,g  2.5,10.0
# From MPEC 2024-D33
117P/Helin-Roman-Alu,e,8.7055,58.8140,223.4937,4.093125,0.1190204,0.25606020,70.4406,02/22.0/2024,2000,g  2.5,8.0
# From MPEC 2023-XP6
118P/Shoemaker-Levy,e,10.0903,142.0863,314.8804,3.348149,0.1608781,0.45369699,73.1279,02/22.0/2024,2000,g 12.0,4.0
# From MPEC 2024-D33
119P/Parker-Hartley,e,7.3923,104.5596,322.1673,3.807226,0.1326756,0.38837086,74.1295,02/22.0/2024,2000,g  3.5,8.0
# From MPEC 2022-CN4
120P/Mueller,e,8.4871,358.7237,36.7060,3.967787,0.1247043,0.37473253,127.2240,02/22.0/2024,2000,g 12.0,4.0
# From MPEC 2024-D33
121P/Shoemaker-Holt,e,20.1630,94.1125,11.7367,4.585545,0.1003732,0.18646544,23.8634,02/22.0/2024,2000,g  6.5,8.0
# From MPC 75718
122P/de Vico,e,85.9159,79.7219,12.9918,17.62765,0.0133172,0.96245035,138.2907,02/22.0/2024,2000,g  7.5,5.2
# From MPEC 2021-F20
123P/West-Hartley,e,15.2799,45.9030,104.0249,3.881437,0.1288888,0.44428606,238.3655,02/22.0/2024,2000,g 12.2,4.0
# From MPEC 2023-T65
124P/Mrkos,e,31.4573,0.0733,185.1878,3.372840,0.1591148,0.48688870,224.3090,02/22.0/2024,2000,g 13.5,2.8
# From MPEC 2024-D33
125P/Spacewatch,e,9.9848,153.1507,87.1401,3.129384,0.1780392,0.51214266,357.4548,02/22.0/2024,2000,g 13.0,6.0
# From MPEC 2024-D33
126P/IRAS,e,45.8707,357.8630,356.5815,5.634474,0.0736926,0.69644730,17.0754,02/22.0/2024,2000,g  6.0,8.0
# From MPEC 2024-AF0
127P/Holt-Olmstead,e,14.3006,13.6077,6.3030,3.452721,0.1536250,0.35929827,86.1209,02/22.0/2024,2000,g 11.0,6.0
# From MPC 89014
128P/Shoemaker-Holt,e,4.3703,214.3401,210.3505,4.485626,0.1037456,0.32234795,269.1892,02/22.0/2024,2000,g  8.5,4.0
# From MPEC 2024-BE0
129P/Shoemaker-Levy,e,3.4423,184.8608,307.5395,4.291483,0.1108646,0.08554082,49.6858,02/22.0/2024,2000,g 11.0,4.0
# From MPEC 2024-BE0
130P/McNaught-Hughes,e,6.0636,70.1785,246.1256,3.381421,0.1585095,0.46088072,351.6183,02/22.0/2024,2000,g 10.0,6.0
# From MPC102101
131P/Mueller,e,7.3606,214.1779,179.1140,3.677148,0.1397775,0.34491406,258.7601,02/22.0/2024,2000,g 11.0,4.0
# From MPEC 2024-BE0
132P/Helin-Roman-Alu,e,5.3814,173.9948,216.4503,3.890337,0.1284468,0.56459198,106.7077,02/22.0/2024,2000,g 11.0,6.0
# From MPC 94676
133P/Elst-Pizarro,e,1.3897,160.1016,131.9170,3.164614,0.1750745,0.15607043,346.2869,02/22.0/2024,2000,g 15.4,2.0
# From MPC 89012
134P/Kowal-Vavrova,e,4.3349,202.0121,18.7788,6.267168,0.0628199,0.58510454,224.8585,02/22.0/2024,2000,g 11.5,4.0
# From MPEC 2024-C04
135P/Shoemaker-Levy,e,6.0639,213.0191,22.3934,3.800412,0.1330326,0.29426759,91.2155,02/22.0/2024,2000,g  7.0,8.0
# From MPEC 2022-K19
136P/Mueller,e,9.4277,137.4968,225.1508,4.186450,0.1150629,0.29327597,323.6161,02/22.0/2024,2000,g 11.0,4.0
# From MPEC 2023-J29
137P/Shoemaker-Levy,e,4.8602,232.9266,141.2141,4.522313,0.1024857,0.57360271,194.1704,02/22.0/2024,2000,g 11.0,4.0
# From MPEC 2016-U66
138P/Shoemaker-Levy,e,10.0956,309.2929,95.6212,3.619020,0.1431586,0.53161221,251.0345,02/22.0/2024,2000,g 15.0,6.0
# From MPEC 2020-HN5
139P/Vaisala-Oterma,e,2.3373,242.1802,165.8365,4.516277,0.1026912,0.24831392,232.0572,02/22.0/2024,2000,g  9.5,4.0
# From MPEC 2015-E14
140P/Bowell-Skiff,e,3.7907,343.3256,172.3803,6.405993,0.0607889,0.69603901,190.4821,02/22.0/2024,2000,g 11.5,6.0
# From MPEC 2022-K19
141P/Machholz,e,13.9549,241.8104,153.6009,3.057551,0.1843502,0.73608542,214.2147,02/22.0/2024,2000,g 12.0,12.0
# From MPEC 2015-KD9
141P-A/Machholz,e,13.9437,153.5546,241.8705,3.057684,0.1843381,0.73608200,214.1681,02/22.0/2024,2000,g 12.0,12.0
# From MPC 24216
141P-B/Machholz,e,13.9876,153.6303,241.7597,3.056074,0.1844838,0.73583992,215.5243,02/22.0/2024,2000,g  9.0,4.0
# From MPC 37026
141P-D/Machholz,e,13.8357,153.2816,242.1181,3.066137,0.1835764,0.73703689,210.1395,02/22.0/2024,2000,g  9.0,4.0
# From MPEC 2015-R12
141P-E/Machholz,e,12.8152,246.1856,149.2667,3.012914,0.1884620,0.75023267,359.9529,09/19.0/1994,2000,g  9.0,4.0
# From MPEC 2015-R12
141P-F/Machholz,e,12.7898,246.1881,149.2374,3.010224,0.1887147,0.75000946,359.9630,09/19.0/1994,2000,g  9.0,4.0
# From MPEC 2015-R12
141P-G/Machholz,e,12.8259,246.3146,149.0784,3.005818,0.1891298,0.74964304,359.9802,09/19.0/1994,2000,g  9.0,4.0
# From MPC 95735
141P-H/Machholz,e,12.8431,246.0900,149.4500,3.008012,0.1889230,0.74682218,359.9270,08/24.0/2015,2000,g 18.5,4.0
# From MPEC 2022-SU8
141P-I/Machholz,e,13.9435,153.5089,241.8807,3.048166,0.1852022,0.73530738,215.2850,02/22.0/2024,2000,g 17.5,4.0
# From MPEC 2024-C04
142P/Ge-Wang,e,12.2498,175.9429,174.0695,5.002215,0.0880969,0.49664864,89.4657,02/22.0/2024,2000,g  8.5,6.0
